{
 "type": "FeatureCollection",
 "name": "Tour de Moroni — parcours 10 km",
 "features": [
  {
   "type": "Feature",
   "properties": {
    "nom": "Boucle Sud (km 0 - 6,03)",
    "type": "parcours"
   },
   "geometry": {
    "type": "LineString",
    "coordinates": [
     [
      43.25243,
      -11.70136
     ],
     [
      43.25235,
      -11.70175
     ],
     [
      43.25233,
      -11.70185
     ],
     [
      43.25226,
      -11.70184
     ],
     [
      43.25193,
      -11.70179
     ],
     [
      43.25184,
      -11.70178
     ],
     [
      43.25182,
      -11.70178
     ],
     [
      43.25181,
      -11.70179
     ],
     [
      43.25179,
      -11.7018
     ],
     [
      43.25173,
      -11.7018
     ],
     [
      43.25171,
      -11.70184
     ],
     [
      43.25171,
      -11.70188
     ],
     [
      43.25171,
      -11.70191
     ],
     [
      43.25172,
      -11.70195
     ],
     [
      43.25176,
      -11.70203
     ],
     [
      43.25184,
      -11.70218
     ],
     [
      43.25188,
      -11.70226
     ],
     [
      43.25192,
      -11.70235
     ],
     [
      43.25202,
      -11.70261
     ],
     [
      43.25228,
      -11.70317
     ],
     [
      43.25228,
      -11.70323
     ],
     [
      43.25231,
      -11.70333
     ],
     [
      43.25231,
      -11.70339
     ],
     [
      43.2523,
      -11.70344
     ],
     [
      43.25227,
      -11.7035
     ],
     [
      43.25224,
      -11.70356
     ],
     [
      43.2522,
      -11.7036
     ],
     [
      43.25217,
      -11.70363
     ],
     [
      43.25215,
      -11.70364
     ],
     [
      43.25209,
      -11.70366
     ],
     [
      43.25202,
      -11.70366
     ],
     [
      43.252,
      -11.70366
     ],
     [
      43.25198,
      -11.70366
     ],
     [
      43.25173,
      -11.70358
     ],
     [
      43.25164,
      -11.70356
     ],
     [
      43.25155,
      -11.70356
     ],
     [
      43.25145,
      -11.70357
     ],
     [
      43.25138,
      -11.7036
     ],
     [
      43.25134,
      -11.70363
     ],
     [
      43.2513,
      -11.70367
     ],
     [
      43.25127,
      -11.70373
     ],
     [
      43.25125,
      -11.7038
     ],
     [
      43.25115,
      -11.70397
     ],
     [
      43.25069,
      -11.70468
     ],
     [
      43.25058,
      -11.70477
     ],
     [
      43.25043,
      -11.70485
     ],
     [
      43.25038,
      -11.70486
     ],
     [
      43.25034,
      -11.70488
     ],
     [
      43.25031,
      -11.70491
     ],
     [
      43.25028,
      -11.70494
     ],
     [
      43.25019,
      -11.70499
     ],
     [
      43.24984,
      -11.70518
     ],
     [
      43.24965,
      -11.7053
     ],
     [
      43.24916,
      -11.70558
     ],
     [
      43.2487,
      -11.70585
     ],
     [
      43.24843,
      -11.70601
     ],
     [
      43.24838,
      -11.70606
     ],
     [
      43.2483,
      -11.70614
     ],
     [
      43.24784,
      -11.70713
     ],
     [
      43.24716,
      -11.70865
     ],
     [
      43.24699,
      -11.70905
     ],
     [
      43.24692,
      -11.70923
     ],
     [
      43.24667,
      -11.7098
     ],
     [
      43.24661,
      -11.70993
     ],
     [
      43.24657,
      -11.71003
     ],
     [
      43.24652,
      -11.71017
     ],
     [
      43.24638,
      -11.71057
     ],
     [
      43.24634,
      -11.71078
     ],
     [
      43.24627,
      -11.71129
     ],
     [
      43.24611,
      -11.71207
     ],
     [
      43.24607,
      -11.71255
     ],
     [
      43.2461,
      -11.71306
     ],
     [
      43.24608,
      -11.7135
     ],
     [
      43.246,
      -11.7141
     ],
     [
      43.24586,
      -11.71532
     ],
     [
      43.24584,
      -11.71542
     ],
     [
      43.24579,
      -11.71582
     ],
     [
      43.24566,
      -11.71709
     ],
     [
      43.24557,
      -11.71796
     ],
     [
      43.24553,
      -11.71827
     ],
     [
      43.24546,
      -11.71868
     ],
     [
      43.24545,
      -11.71895
     ],
     [
      43.24548,
      -11.71898
     ],
     [
      43.2455,
      -11.71901
     ],
     [
      43.24552,
      -11.71904
     ],
     [
      43.24552,
      -11.71909
     ],
     [
      43.24552,
      -11.71913
     ],
     [
      43.2455,
      -11.71917
     ],
     [
      43.24548,
      -11.7192
     ],
     [
      43.24556,
      -11.71923
     ],
     [
      43.24565,
      -11.71925
     ],
     [
      43.24618,
      -11.71938
     ],
     [
      43.24688,
      -11.7195
     ],
     [
      43.24749,
      -11.7196
     ],
     [
      43.24872,
      -11.71985
     ],
     [
      43.24885,
      -11.71988
     ],
     [
      43.24931,
      -11.71998
     ],
     [
      43.24979,
      -11.7201
     ],
     [
      43.25058,
      -11.72029
     ],
     [
      43.25059,
      -11.72019
     ],
     [
      43.25059,
      -11.71981
     ],
     [
      43.25062,
      -11.7195
     ],
     [
      43.25075,
      -11.71883
     ],
     [
      43.25103,
      -11.71725
     ],
     [
      43.25125,
      -11.71627
     ],
     [
      43.25129,
      -11.71593
     ],
     [
      43.25129,
      -11.71588
     ],
     [
      43.2513,
      -11.71568
     ],
     [
      43.25131,
      -11.7155
     ],
     [
      43.25132,
      -11.71534
     ],
     [
      43.25138,
      -11.71507
     ],
     [
      43.25149,
      -11.71475
     ],
     [
      43.25155,
      -11.71457
     ],
     [
      43.25155,
      -11.71452
     ],
     [
      43.25155,
      -11.71448
     ],
     [
      43.25154,
      -11.71443
     ],
     [
      43.25152,
      -11.71438
     ],
     [
      43.25148,
      -11.71424
     ],
     [
      43.25136,
      -11.71392
     ],
     [
      43.25135,
      -11.71385
     ],
     [
      43.25135,
      -11.71377
     ],
     [
      43.25136,
      -11.71371
     ],
     [
      43.25138,
      -11.71366
     ],
     [
      43.2514,
      -11.71361
     ],
     [
      43.25144,
      -11.71356
     ],
     [
      43.2515,
      -11.71348
     ],
     [
      43.252,
      -11.71297
     ],
     [
      43.2526,
      -11.71235
     ],
     [
      43.25267,
      -11.71226
     ],
     [
      43.25269,
      -11.71222
     ],
     [
      43.2527,
      -11.71213
     ],
     [
      43.2527,
      -11.71207
     ],
     [
      43.25261,
      -11.71132
     ],
     [
      43.25252,
      -11.71064
     ],
     [
      43.25246,
      -11.71038
     ],
     [
      43.25244,
      -11.71027
     ],
     [
      43.25242,
      -11.71015
     ],
     [
      43.25241,
      -11.71004
     ],
     [
      43.25239,
      -11.70993
     ],
     [
      43.25235,
      -11.70974
     ],
     [
      43.25232,
      -11.70954
     ],
     [
      43.2523,
      -11.70941
     ],
     [
      43.25228,
      -11.7093
     ],
     [
      43.25226,
      -11.70916
     ],
     [
      43.25225,
      -11.70902
     ],
     [
      43.25225,
      -11.70892
     ],
     [
      43.25225,
      -11.70886
     ],
     [
      43.25225,
      -11.70877
     ],
     [
      43.25227,
      -11.70867
     ],
     [
      43.2523,
      -11.70849
     ],
     [
      43.25234,
      -11.70831
     ],
     [
      43.2525,
      -11.70832
     ],
     [
      43.25261,
      -11.70835
     ],
     [
      43.25281,
      -11.70845
     ],
     [
      43.25301,
      -11.70855
     ],
     [
      43.25331,
      -11.7087
     ],
     [
      43.25334,
      -11.70863
     ],
     [
      43.25334,
      -11.70854
     ],
     [
      43.25331,
      -11.70844
     ],
     [
      43.25332,
      -11.70836
     ],
     [
      43.25336,
      -11.70826
     ],
     [
      43.25352,
      -11.70796
     ],
     [
      43.25353,
      -11.70792
     ],
     [
      43.25378,
      -11.70734
     ],
     [
      43.25397,
      -11.70741
     ],
     [
      43.25415,
      -11.70743
     ],
     [
      43.25457,
      -11.7075
     ],
     [
      43.25483,
      -11.70753
     ],
     [
      43.25498,
      -11.70755
     ],
     [
      43.25513,
      -11.70757
     ],
     [
      43.25579,
      -11.70751
     ],
     [
      43.25575,
      -11.70676
     ],
     [
      43.25574,
      -11.7067
     ],
     [
      43.25574,
      -11.70667
     ],
     [
      43.25572,
      -11.70664
     ],
     [
      43.2557,
      -11.7066
     ],
     [
      43.25555,
      -11.70629
     ],
     [
      43.25533,
      -11.7058
     ],
     [
      43.25529,
      -11.70563
     ],
     [
      43.25528,
      -11.70548
     ],
     [
      43.25527,
      -11.70534
     ],
     [
      43.2553,
      -11.70522
     ],
     [
      43.25532,
      -11.70513
     ],
     [
      43.25524,
      -11.70507
     ],
     [
      43.2552,
      -11.70501
     ],
     [
      43.25518,
      -11.70494
     ],
     [
      43.25515,
      -11.70484
     ],
     [
      43.25514,
      -11.70473
     ],
     [
      43.25517,
      -11.70452
     ],
     [
      43.2553,
      -11.70433
     ],
     [
      43.25531,
      -11.70431
     ],
     [
      43.25532,
      -11.70429
     ],
     [
      43.25532,
      -11.70427
     ],
     [
      43.25532,
      -11.70425
     ],
     [
      43.25542,
      -11.70414
     ],
     [
      43.25544,
      -11.70407
     ],
     [
      43.25547,
      -11.70403
     ],
     [
      43.25554,
      -11.70397
     ],
     [
      43.25559,
      -11.70389
     ],
     [
      43.25563,
      -11.7038
     ],
     [
      43.25564,
      -11.70375
     ],
     [
      43.25565,
      -11.70368
     ],
     [
      43.25563,
      -11.7036
     ],
     [
      43.25561,
      -11.70352
     ],
     [
      43.25557,
      -11.70345
     ],
     [
      43.25545,
      -11.70318
     ],
     [
      43.25537,
      -11.70303
     ],
     [
      43.25531,
      -11.7029
     ],
     [
      43.25524,
      -11.70278
     ],
     [
      43.25519,
      -11.70268
     ],
     [
      43.25521,
      -11.70269
     ],
     [
      43.25523,
      -11.70269
     ],
     [
      43.25525,
      -11.70269
     ],
     [
      43.25527,
      -11.70268
     ],
     [
      43.25529,
      -11.70266
     ],
     [
      43.2553,
      -11.70265
     ],
     [
      43.25531,
      -11.70262
     ],
     [
      43.2553,
      -11.7026
     ],
     [
      43.2553,
      -11.70258
     ],
     [
      43.25528,
      -11.70257
     ],
     [
      43.25527,
      -11.70255
     ],
     [
      43.25525,
      -11.70255
     ],
     [
      43.25523,
      -11.70255
     ],
     [
      43.25521,
      -11.70255
     ],
     [
      43.25515,
      -11.70248
     ],
     [
      43.25512,
      -11.70246
     ],
     [
      43.25508,
      -11.70243
     ],
     [
      43.25482,
      -11.70228
     ],
     [
      43.25457,
      -11.70215
     ],
     [
      43.25443,
      -11.70209
     ],
     [
      43.25424,
      -11.70206
     ],
     [
      43.25401,
      -11.70202
     ],
     [
      43.25339,
      -11.70192
     ],
     [
      43.25282,
      -11.70184
     ],
     [
      43.25235,
      -11.70175
     ],
     [
      43.25228,
      -11.70173
     ],
     [
      43.25232,
      -11.70134
     ],
     [
      43.25238,
      -11.70095
     ],
     [
      43.25238,
      -11.70077
     ],
     [
      43.25236,
      -11.7007
     ],
     [
      43.25232,
      -11.70055
     ],
     [
      43.2524,
      -11.70062
     ],
     [
      43.25242,
      -11.70067
     ],
     [
      43.25244,
      -11.70072
     ],
     [
      43.25246,
      -11.70079
     ],
     [
      43.25246,
      -11.70087
     ],
     [
      43.25246,
      -11.70108
     ],
     [
      43.25243,
      -11.70134
     ],
     [
      43.25243,
      -11.70136
     ]
    ]
   }
  },
  {
   "type": "Feature",
   "properties": {
    "nom": "Boucle Nord (km 6,03 - 10,00)",
    "type": "parcours"
   },
   "geometry": {
    "type": "LineString",
    "coordinates": [
     [
      43.25243,
      -11.70136
     ],
     [
      43.25235,
      -11.70175
     ],
     [
      43.25282,
      -11.70184
     ],
     [
      43.25339,
      -11.70192
     ],
     [
      43.25401,
      -11.70202
     ],
     [
      43.2541,
      -11.70194
     ],
     [
      43.25412,
      -11.70192
     ],
     [
      43.25413,
      -11.70191
     ],
     [
      43.25416,
      -11.70185
     ],
     [
      43.2542,
      -11.70177
     ],
     [
      43.25422,
      -11.70152
     ],
     [
      43.25428,
      -11.70095
     ],
     [
      43.25435,
      -11.70044
     ],
     [
      43.25446,
      -11.69961
     ],
     [
      43.25452,
      -11.69918
     ],
     [
      43.25467,
      -11.69806
     ],
     [
      43.25469,
      -11.6979
     ],
     [
      43.25471,
      -11.6977
     ],
     [
      43.25472,
      -11.69764
     ],
     [
      43.25478,
      -11.69723
     ],
     [
      43.25483,
      -11.69683
     ],
     [
      43.25493,
      -11.69626
     ],
     [
      43.25495,
      -11.69626
     ],
     [
      43.25497,
      -11.69625
     ],
     [
      43.25499,
      -11.69623
     ],
     [
      43.25499,
      -11.69621
     ],
     [
      43.255,
      -11.69619
     ],
     [
      43.25499,
      -11.69617
     ],
     [
      43.25497,
      -11.69615
     ],
     [
      43.25505,
      -11.69596
     ],
     [
      43.25518,
      -11.69564
     ],
     [
      43.25535,
      -11.69514
     ],
     [
      43.25567,
      -11.69419
     ],
     [
      43.25579,
      -11.69381
     ],
     [
      43.25634,
      -11.69231
     ],
     [
      43.25637,
      -11.69223
     ],
     [
      43.25656,
      -11.69172
     ],
     [
      43.25661,
      -11.69158
     ],
     [
      43.25705,
      -11.69025
     ],
     [
      43.25718,
      -11.69
     ],
     [
      43.25719,
      -11.68985
     ],
     [
      43.25718,
      -11.68984
     ],
     [
      43.25718,
      -11.68982
     ],
     [
      43.25718,
      -11.6898
     ],
     [
      43.25719,
      -11.68979
     ],
     [
      43.2572,
      -11.68977
     ],
     [
      43.25721,
      -11.68976
     ],
     [
      43.25723,
      -11.68976
     ],
     [
      43.25724,
      -11.68975
     ],
     [
      43.25731,
      -11.6896
     ],
     [
      43.25818,
      -11.68839
     ],
     [
      43.25756,
      -11.68808
     ],
     [
      43.25717,
      -11.68789
     ],
     [
      43.2567,
      -11.68766
     ],
     [
      43.25637,
      -11.68745
     ],
     [
      43.25575,
      -11.6888
     ],
     [
      43.25549,
      -11.68872
     ],
     [
      43.25524,
      -11.68866
     ],
     [
      43.25502,
      -11.68862
     ],
     [
      43.25487,
      -11.68862
     ],
     [
      43.25454,
      -11.68864
     ],
     [
      43.2539,
      -11.68864
     ],
     [
      43.25371,
      -11.68864
     ],
     [
      43.25354,
      -11.68907
     ],
     [
      43.25338,
      -11.68954
     ],
     [
      43.25326,
      -11.68989
     ],
     [
      43.25324,
      -11.68999
     ],
     [
      43.25314,
      -11.69031
     ],
     [
      43.25295,
      -11.69095
     ],
     [
      43.25272,
      -11.69164
     ],
     [
      43.25263,
      -11.69193
     ],
     [
      43.25256,
      -11.69207
     ],
     [
      43.2525,
      -11.69227
     ],
     [
      43.25249,
      -11.69239
     ],
     [
      43.25247,
      -11.69259
     ],
     [
      43.25237,
      -11.69294
     ],
     [
      43.25228,
      -11.69304
     ],
     [
      43.25207,
      -11.69329
     ],
     [
      43.25178,
      -11.69359
     ],
     [
      43.25159,
      -11.69384
     ],
     [
      43.25146,
      -11.69412
     ],
     [
      43.25139,
      -11.69436
     ],
     [
      43.25135,
      -11.69457
     ],
     [
      43.25133,
      -11.69469
     ],
     [
      43.25129,
      -11.69498
     ],
     [
      43.25126,
      -11.69512
     ],
     [
      43.25126,
      -11.69533
     ],
     [
      43.25125,
      -11.69557
     ],
     [
      43.25126,
      -11.6958
     ],
     [
      43.25127,
      -11.69606
     ],
     [
      43.25128,
      -11.69621
     ],
     [
      43.2513,
      -11.69632
     ],
     [
      43.25133,
      -11.69649
     ],
     [
      43.25151,
      -11.697
     ],
     [
      43.25169,
      -11.69752
     ],
     [
      43.25186,
      -11.69804
     ],
     [
      43.25189,
      -11.69814
     ],
     [
      43.25193,
      -11.6983
     ],
     [
      43.252,
      -11.69853
     ],
     [
      43.25202,
      -11.69872
     ],
     [
      43.25202,
      -11.69882
     ],
     [
      43.25201,
      -11.6989
     ],
     [
      43.2519,
      -11.69913
     ],
     [
      43.25181,
      -11.69932
     ],
     [
      43.25175,
      -11.69951
     ],
     [
      43.25171,
      -11.69971
     ],
     [
      43.25172,
      -11.6998
     ],
     [
      43.25173,
      -11.69987
     ],
     [
      43.25175,
      -11.69996
     ],
     [
      43.25177,
      -11.7
     ],
     [
      43.25185,
      -11.70012
     ],
     [
      43.25197,
      -11.70021
     ],
     [
      43.25204,
      -11.70028
     ],
     [
      43.25219,
      -11.7004
     ],
     [
      43.25227,
      -11.70048
     ],
     [
      43.25232,
      -11.70055
     ],
     [
      43.2524,
      -11.70062
     ],
     [
      43.25242,
      -11.70067
     ],
     [
      43.25244,
      -11.70072
     ],
     [
      43.25246,
      -11.70079
     ],
     [
      43.25246,
      -11.70087
     ],
     [
      43.25246,
      -11.70108
     ],
     [
      43.25243,
      -11.70134
     ],
     [
      43.25243,
      -11.70136
     ]
    ]
   }
  },
  {
   "type": "Feature",
   "properties": {
    "nom": "km 1",
    "type": "borne"
   },
   "geometry": {
    "type": "Point",
    "coordinates": [
     43.247861,
     -11.707085
    ]
   }
  },
  {
   "type": "Feature",
   "properties": {
    "nom": "km 2",
    "type": "borne"
   },
   "geometry": {
    "type": "Point",
    "coordinates": [
     43.2458,
     -11.715744
    ]
   }
  },
  {
   "type": "Feature",
   "properties": {
    "nom": "km 3",
    "type": "borne"
   },
   "geometry": {
    "type": "Point",
    "coordinates": [
     43.25059,
     -11.719922
    ]
   }
  },
  {
   "type": "Feature",
   "properties": {
    "nom": "km 4",
    "type": "borne"
   },
   "geometry": {
    "type": "Point",
    "coordinates": [
     43.252639,
     -11.711561
    ]
   }
  },
  {
   "type": "Feature",
   "properties": {
    "nom": "km 5",
    "type": "borne"
   },
   "geometry": {
    "type": "Point",
    "coordinates": [
     43.255577,
     -11.706347
    ]
   }
  },
  {
   "type": "Feature",
   "properties": {
    "nom": "km 6",
    "type": "borne"
   },
   "geometry": {
    "type": "Point",
    "coordinates": [
     43.25246,
     -11.70093
    ]
   }
  },
  {
   "type": "Feature",
   "properties": {
    "nom": "km 7",
    "type": "borne"
   },
   "geometry": {
    "type": "Point",
    "coordinates": [
     43.255153,
     -11.695706
    ]
   }
  },
  {
   "type": "Feature",
   "properties": {
    "nom": "km 8",
    "type": "borne"
   },
   "geometry": {
    "type": "Point",
    "coordinates": [
     43.257254,
     -11.687931
    ]
   }
  },
  {
   "type": "Feature",
   "properties": {
    "nom": "km 9",
    "type": "borne"
   },
   "geometry": {
    "type": "Point",
    "coordinates": [
     43.252372,
     -11.692933
    ]
   }
  },
  {
   "type": "Feature",
   "properties": {
    "nom": "Départ / Arrivée — Place de l'Indépendance",
    "type": "depart"
   },
   "geometry": {
    "type": "Point",
    "coordinates": [
     43.25243,
     -11.70136
    ]
   }
  },
  {
   "type": "Feature",
   "properties": {
    "nom": "Ravitaillement R1 — km 2,5",
    "type": "ravito"
   },
   "geometry": {
    "type": "Point",
    "coordinates": [
     43.246459,
     -11.719428
    ]
   }
  },
  {
   "type": "Feature",
   "properties": {
    "nom": "Ravitaillement R2 — km 5",
    "type": "ravito"
   },
   "geometry": {
    "type": "Point",
    "coordinates": [
     43.255577,
     -11.706347
    ]
   }
  },
  {
   "type": "Feature",
   "properties": {
    "nom": "Ravitaillement R3 — km 7,5",
    "type": "ravito"
   },
   "geometry": {
    "type": "Point",
    "coordinates": [
     43.256651,
     -11.691456
    ]
   }
  },
  {
   "type": "Feature",
   "properties": {
    "nom": "Brumisation B1 — km 3,8",
    "type": "brume"
   },
   "geometry": {
    "type": "Point",
    "coordinates": [
     43.251913,
     -11.713059
    ]
   }
  },
  {
   "type": "Feature",
   "properties": {
    "nom": "Brumisation B2 — km 8,8",
    "type": "brume"
   },
   "geometry": {
    "type": "Point",
    "coordinates": [
     43.252864,
     -11.691208
    ]
   }
  },
  {
   "type": "Feature",
   "properties": {
    "nom": "Poste de secours PS2 — km 2,4 (Palais du Peuple)",
    "type": "secours"
   },
   "geometry": {
    "type": "Point",
    "coordinates": [
     43.245563,
     -11.719231
    ]
   }
  },
  {
   "type": "Feature",
   "properties": {
    "nom": "Poste de secours PS3 — km 7,6 (Alliance Française)",
    "type": "secours"
   },
   "geometry": {
    "type": "Point",
    "coordinates": [
     43.256934,
     -11.6906
    ]
   }
  },
  {
   "type": "Feature",
   "properties": {
    "nom": "Relais PMR / joëlettes — km 5,0",
    "type": "pmr"
   },
   "geometry": {
    "type": "Point",
    "coordinates": [
     43.255577,
     -11.706347
    ]
   }
  }
 ]
}